STARLINK-31630          
1 59271U 24050T   26068.56880718 -.00002063  00000+0 -57526-4 0  9991
2 59271  53.1600 168.5079 0001409  92.3163 267.7999 15.30200807110710
STARLINK-35462          
1 65877U 25223Z   26068.91412200  .00022646  00000+0  77418-3 0  9997
2 65877  53.1578 292.8708 0001389  49.8857 310.2265 15.30208743 24246
