[{"OBJECT_NAME":"STARLINK-31630","OBJECT_ID":"2024-050T","EPOCH":"2026-03-09T13:39:04.940352","MEAN_MOTION":15.30200807,"ECCENTRICITY":0.0001409,"INCLINATION":53.16,"RA_OF_ASC_NODE":168.5079,"ARG_OF_PERICENTER":92.3163,"MEAN_ANOMALY":267.7999,"EPHEMERIS_TYPE":0,"CLASSIFICATION_TYPE":"U","NORAD_CAT_ID":59271,"ELEMENT_SET_NO":999,"REV_AT_EPOCH":11071,"BSTAR":-5.7526e-5,"MEAN_MOTION_DOT":-2.063e-5,"MEAN_MOTION_DDOT":0},{"OBJECT_NAME":"STARLINK-35462","OBJECT_ID":"2025-223Z","EPOCH":"2026-03-09T21:56:20.141664","MEAN_MOTION":15.30208743,"ECCENTRICITY":0.00013886,"INCLINATION":53.1578,"RA_OF_ASC_NODE":292.8708,"ARG_OF_PERICENTER":49.8857,"MEAN_ANOMALY":310.2265,"EPHEMERIS_TYPE":0,"CLASSIFICATION_TYPE":"U","NORAD_CAT_ID":65877,"ELEMENT_SET_NO":999,"REV_AT_EPOCH":2424,"BSTAR":0.00077418298,"MEAN_MOTION_DOT":0.00022646,"MEAN_MOTION_DDOT":0}]
